NORAD_CAT_ID,OBJECT_NAME,OBJECT_TYPE,EPOCH,MEAN_MOTION,ECCENTRICITY,INCLINATION,RA_OF_ASC_NODE,ARG_OF_PERICENTER,MEAN_ANOMALY,BSTAR,MEAN_MOTION_DOT,MEAN_MOTION_DDOT,TLE_LINE0,TLE_LINE1,TLE_LINE2,SEMIMAJOR_AXIS,PERIOD,APOGEE,PERIGEE,DECAYED
52834.0,STARLINK-4108,PAYLOAD,2023-05-03 11:12:47,15.08842829,0.0001019,53.2179,28.3511,92.5919,267.519,0.00013238,1.82e-05,0.0,0 STARLINK-4108,1 52834U 22062E   23123.46722123  .00001820  00000-0  13238-3 0  9993,2 52834  53.2179  28.3511 0001019  92.5919 267.5190 15.08842829 48590,6917.872,95.437,540.442,539.032,0.0
52834.0,STARLINK-4108,PAYLOAD,2023-05-03 22:20:29,15.08845673,0.0001143,53.2175,26.273,82.5248,277.5874,3.1688e-05,2.17e-06,0.0,0 STARLINK-4108,1 52834U 22062E   23123.93090040  .00000217  00000-0  31688-4 0  9990,2 52834  53.2175  26.2730 0001143  82.5248 277.5874 15.08845673 48666,6917.863,95.437,540.519,538.937,0.0
52834.0,STARLINK-4108,PAYLOAD,2023-05-04 03:06:38,15.08847936,0.0001107,53.2167,25.3791,86.2176,273.8943,9.1537e-05,1.17e-05,0.0,0 STARLINK-4108,1 52834U 22062E   23124.12961748  .00001170  00000-0  91537-4 0  9992,2 52834  53.2167  25.3791 0001107  86.2176 273.8943 15.08847936 48698,6917.856,95.437,540.487,538.955,0.0
52834.0,STARLINK-4108,PAYLOAD,2023-05-04 20:35:53,15.08839546,9.85e-05,53.2155,22.1083,82.1627,277.9477,2.5085e-05,1.11e-06,0.0,0 STARLINK-4108,1 52834U 22062E   23124.85826269  .00000111  00000-0  25085-4 0  9999,2 52834  53.2155  22.1083 0000985  82.1627 277.9477 15.08839546 48801,6917.882,95.438,540.428,539.065,0.0
52834.0,STARLINK-4108,PAYLOAD,2023-05-04 23:46:39,15.08843878,9.78e-05,53.2162,21.5132,82.9998,277.1106,6.0908e-05,6.82e-06,0.0,0 STARLINK-4108,1 52834U 22062E   23124.99074019  .00000682  00000-0  60908-4 0  9998,2 52834  53.2162  21.5132 0000978  82.9998 277.1106 15.08843878 48824,6917.869,95.437,540.41,539.057,0.0
52834.0,STARLINK-4108,PAYLOAD,2023-05-05 20:26:41,15.08837425,0.0001215,53.2167,17.6464,106.2558,253.8568,3.0806e-05,2.02e-06,0.0,0 STARLINK-4108,1 52834U 22062E   23125.85186558  .00000202  00000-0  30806-4 0  9998,2 52834  53.2167  17.6464 0001215 106.2558 253.8568 15.08837425 48958,6917.888,95.438,540.594,538.913,0.0
52834.0,STARLINK-4108,PAYLOAD,2023-05-06 15:31:18,15.08839064,0.0001097,53.2172,14.0804,99.0861,261.0255,0.00012758,1.743e-05,0.0,0 STARLINK-4108,1 52834U 22062E   23126.64674523  .00001743  00000-0  12758-3 0  9996,2 52834  53.2172  14.0804 0001097  99.0861 261.0255 15.08839064 49076,6917.883,95.438,540.507,538.989,0.0
52834.0,STARLINK-4108,PAYLOAD,2023-05-06 23:28:14,15.08848567,0.0001073,53.2166,12.5944,97.3784,262.733,0.00022049,3.224e-05,0.0,0 STARLINK-4108,1 52834U 22062E   23126.97793999  .00003224  00000-0  22049-3 0  9991,2 52834  53.2166  12.5944 0001073  97.3784 262.7330 15.08848567 49122,6917.854,95.437,540.461,538.977,0.0
52834.0,STARLINK-4108,PAYLOAD,2023-05-07 20:08:15,15.08834869,8.09e-05,53.216,8.7283,94.0679,266.0405,1.5172e-05,-4.6e-07,0.0,0 STARLINK-4108,1 52834U 22062E   23127.83906973 -.00000046  00000-0  15172-4 0  9995,2 52834  53.2160   8.7283 0000809  94.0679 266.0405 15.08834869 49256,6917.896,95.438,540.321,539.201,0.0
52834.0,STARLINK-4108,PAYLOAD,2023-05-07 21:43:38,15.08835098,9.21e-05,53.2153,8.431,96.591,263.5187,1.3029e-05,-8e-07,0.0,0 STARLINK-4108,1 52834U 22062E   23127.90530968 -.00000080  00000-0  13029-4 0  9997,2 52834  53.2153   8.4310 0000921  96.5910 263.5187 15.08835098 49261,6917.895,95.438,540.398,539.123,0.0
52834.0,STARLINK-4108,PAYLOAD,2023-05-08 19:59:02,15.0884344,0.0001116,53.2156,4.2664,87.819,272.293,0.00013273,1.825e-05,0.0,0 STARLINK-4108,1 52834U 22062E   23128.83266758  .00001825  00000-0  13273-3 0  9990,2 52834  53.2156   4.2664 0001116  87.8190 272.2930 15.08843440 49409,6917.87,95.437,540.507,538.963,0.0
52834.0,STARLINK-4108,PAYLOAD,2023-05-08 21:34:25,15.0884648,0.0001057,53.2149,3.9684,84.3735,275.7378,0.00015118,2.119e-05,0.0,0 STARLINK-4108,1 52834U 22062E   23128.89890603  .00002119  00000-0  15118-3 0  9995,2 52834  53.2149   3.9684 0001057  84.3735 275.7378 15.08846480 49412,6917.861,95.437,540.457,538.994,0.0
52834.0,STARLINK-4108,PAYLOAD,2023-05-08 23:09:48,15.08849298,0.0001095,53.2156,3.6717,85.0554,275.0563,0.00020587,2.991e-05,0.0,0 STARLINK-4108,1 52834U 22062E   23128.96514483  .00002991  00000-0  20587-3 0  9996,2 52834  53.2156   3.6717 0001095  85.0554 275.0563 15.08849298 49423,6917.852,95.437,540.474,538.959,0.0
52834.0,STARLINK-4108,PAYLOAD,2023-05-10 00:35:58,15.08847791,0.0001146,53.2162,358.9143,90.9451,269.1672,0.0002147,3.131e-05,0.0,0 STARLINK-4108,1 52834U 22062E   23130.02498609  .00003131  00000-0  21470-3 0  9996,2 52834  53.2162 358.9143 0001146  90.9451 269.1672 15.08847791 49585,6917.857,95.437,540.514,538.929,0.0
52834.0,STARLINK-4108,PAYLOAD,2023-05-10 21:15:59,15.08843829,0.0001136,53.2164,355.0468,94.0081,266.1041,6.8947e-05,8.1e-06,0.0,0 STARLINK-4108,1 52834U 22062E   23130.88610840  .00000810  00000-0  68947-4 0  9995,2 52834  53.2164 355.0468 0001136  94.0081 266.1041 15.08843829 49718,6917.869,95.437,540.52,538.948,0.0
52834.0,STARLINK-4108,PAYLOAD,2023-05-11 21:06:47,15.08840982,0.0001077,53.2153,350.5885,77.9467,282.1646,6.4688e-05,7.42e-06,0.0,0 STARLINK-4108,1 52834U 22062E   23131.87971219  .00000742  00000-0  64688-4 0  9997,2 52834  53.2153 350.5885 0001077  77.9467 282.1646 15.08840982 49863,6917.877,95.437,540.487,538.997,0.0
52834.0,STARLINK-4108,PAYLOAD,2023-05-12 01:52:56,15.08845603,0.0001095,53.2159,349.6958,77.9959,282.1156,0.00014576,2.033e-05,0.0,0 STARLINK-4108,1 52834U 22062E   23132.07843009  .00002033  00000-0  14576-3 0  9990,2 52834  53.2159 349.6958 0001095  77.9959 282.1156 15.08845603 49899,6917.863,95.437,540.486,538.971,0.0
52834.0,STARLINK-4108,PAYLOAD,2023-05-12 20:57:33,15.08848229,0.0001208,53.2157,346.1274,72.4971,287.6153,0.00021014,3.059e-05,0.0,0 STARLINK-4108,1 52834U 22062E   23132.87331015  .00003059  00000-0  21014-3 0  9991,2 52834  53.2157 346.1274 0001208  72.4971 287.6153 15.08848229 50010,6917.855,95.437,540.556,538.885,0.0
52834.0,STARLINK-4108,PAYLOAD,2023-05-13 00:08:20,15.08854082,0.0001178,53.2158,345.5316,75.8562,284.2561,0.00030965,4.646e-05,0.0,0 STARLINK-4108,1 52834U 22062E   23133.00578727  .00004646  00000-0  30965-3 0  9998,2 52834  53.2158 345.5316 0001178  75.8562 284.2561 15.08854082 50032,6917.837,95.437,540.517,538.887,0.0
52834.0,STARLINK-4108,PAYLOAD,2023-05-13 20:48:21,15.0884314,0.0001066,53.2158,341.6675,78.8418,281.2694,9.5046e-05,1.225e-05,0.0,0 STARLINK-4108,1 52834U 22062E   23133.86691261  .00001225  00000-0  95046-4 0  9993,2 52834  53.2158 341.6675 0001066  78.8418 281.2694 15.08843140 50167,6917.871,95.437,540.473,538.998,0.0
52834.0,STARLINK-4108,PAYLOAD,2023-05-14 06:20:40,15.08832179,0.0001136,53.2161,339.8815,85.7017,274.4105,-8.2471e-05,-1.6e-05,0.0,0 STARLINK-4108,1 52834U 22062E   23134.26435741 -.00001600  00000-0 -82471-4 0  9994,2 52834  53.2161 339.8815 0001136  85.7017 274.4105 15.08832179 50224,6917.904,95.438,540.555,538.983,0.0
52834.0,STARLINK-4108,PAYLOAD,2023-05-14 12:42:13,15.08831088,9.62e-05,53.2161,338.6918,86.727,273.3832,-4.602e-05,-1.02e-05,0.0,0 STARLINK-4108,1 52834U 22062E   23134.52931769 -.00001020  00000-0 -46020-4 0  9990,2 52834  53.2161 338.6918 0000962  86.7270 273.3832 15.08831088 50260,6917.908,95.438,540.438,539.107,0.0
52834.0,STARLINK-4108,PAYLOAD,2023-05-14 20:39:08,15.08843415,9.44e-05,53.2153,337.2066,90.8657,269.2444,6.2232e-05,7.03e-06,0.0,0 STARLINK-4108,1 52834U 22062E   23134.86051101  .00000703  00000-0  62232-4 0  9998,2 52834  53.2153 337.2066 0000944  90.8657 269.2444 15.08843415 50311,6917.87,95.437,540.388,539.082,0.0
52834.0,STARLINK-4108,PAYLOAD,2023-05-14 23:49:54,15.08846428,9.83e-05,53.2153,336.6114,92.7862,267.3243,0.00014773,2.065e-05,0.0,0 STARLINK-4108,1 52834U 22062E   23134.99299006  .00002065  00000-0  14773-3 0  9999,2 52834  53.2153 336.6114 0000983  92.7862 267.3243 15.08846428 50335,6917.861,95.437,540.406,539.046,0.0
52834.0,STARLINK-4108,PAYLOAD,2023-05-15 17:19:09,15.08838663,9.48e-05,53.2147,333.3401,100.2532,259.8567,5.5055e-05,5.89e-06,0.0,0 STARLINK-4108,1 52834U 22062E   23135.72163587  .00000589  00000-0  55055-4 0  9993,2 52834  53.2147 333.3401 0000948 100.2532 259.8567 15.08838663 50440,6917.884,95.438,540.405,539.094,0.0
52834.0,STARLINK-4108,PAYLOAD,2023-05-16 06:02:14,15.0883828,9.75e-05,53.215,330.9605,90.1493,269.9611,5.1398e-05,5.3e-06,0.0,0 STARLINK-4108,1 52834U 22062E   23136.25155659  .00000530  00000-0  51398-4 0  9995,2 52834  53.2150 330.9605 0000975  90.1493 269.9611 15.08838280 50522,6917.886,95.438,540.425,539.076,0.0
52834.0,STARLINK-4108,PAYLOAD,2023-05-17 02:42:15,15.08831105,8.92e-05,53.2144,327.0948,96.2558,263.8536,-0.00010903,-2.022e-05,0.0,0 STARLINK-4108,1 52834U 22062E   23137.11267915 -.00002022  00000-0 -10903-3 0  9996,2 52834  53.2144 327.0948 0000892  96.2558 263.8536 15.08831105 50651,6917.908,95.438,540.39,539.156,0.0
52834.0,STARLINK-4108,PAYLOAD,2023-05-17 18:36:06,15.08840723,9.5e-05,53.2153,324.1209,80.1735,279.9364,0.00010769,1.427e-05,0.0,0 STARLINK-4108,1 52834U 22062E   23137.77507956  .00001427  00000-0  10769-3 0  9996,2 52834  53.2153 324.1209 0000950  80.1735 279.9364 15.08840723 50757,6917.878,95.438,540.4,539.086,0.0
52834.0,STARLINK-4108,PAYLOAD,2023-05-17 20:11:29,15.08840402,9.45e-05,53.215,323.8237,79.2289,280.881,0.00012534,1.708e-05,0.0,0 STARLINK-4108,1 52834U 22062E   23137.84131933  .00001708  00000-0  12534-3 0  9996,2 52834  53.2150 323.8237 0000945  79.2289 280.8810 15.08840402 50760,6917.879,95.438,540.398,539.09,0.0
52834.0,STARLINK-4108,PAYLOAD,2023-05-18 05:43:48,15.0884067,9.87e-05,53.2148,322.0396,76.1593,283.9509,0.00018398,2.642e-05,0.0,0 STARLINK-4108,1 52834U 22062E   23138.23876029  .00002642  00000-0  18398-3 0  9994,2 52834  53.2148 322.0396 0000987  76.1593 283.9509 15.08840670 50827,6917.878,95.438,540.426,539.061,0.0
